NORAD_CAT_ID,OBJECT_NAME,OBJECT_TYPE,EPOCH,MEAN_MOTION,ECCENTRICITY,INCLINATION,RA_OF_ASC_NODE,ARG_OF_PERICENTER,MEAN_ANOMALY,BSTAR,MEAN_MOTION_DOT,MEAN_MOTION_DDOT,TLE_LINE0,TLE_LINE1,TLE_LINE2,SEMIMAJOR_AXIS,PERIOD,APOGEE,PERIGEE,DECAYED
49435.0,STARLINK-3117,PAYLOAD,2022-01-12 06:00:00,15.63969772,0.0001411,53.2176,197.8942,43.9673,39.7297,-0.0034296,-0.00317399,0.0,0 STARLINK-3117,1 49435U 21104AD  22012.25001157 -.00317399  00000-0 -34296-2 0  9991,2 49435  53.2176 197.8942 0001411  43.9673  39.7297 15.63969772 10676,6754.34,92.073,377.158,375.252,0.0
49435.0,STARLINK-3117,PAYLOAD,2022-01-12 14:00:01,15.63752548,0.0001756,53.2177,196.2663,35.7894,125.6139,-0.0034523,-0.00316808,0.0,0 STARLINK-3117,1 49435U 21104AD  22012.58334491 -.00316808  00000-0 -34523-2 0  9994,2 49435  53.2177 196.2663 0001756  35.7894 125.6139 15.63752548  3703,6754.965999999999,92.086,378.017,375.645,0.0
49435.0,STARLINK-3117,PAYLOAD,2022-01-13 14:00:01,15.63103856,0.0001709,53.2175,191.386,32.4781,0.4784,-0.003593,-0.00321206,0.0,0 STARLINK-3117,1 49435U 21104AD  22013.58334491 -.00321206  00000-0 -35930-2 0  9996,2 49435  53.2175 191.3860 0001709  32.4781   0.4784 15.63103856 10888,6756.835,92.124,379.854,377.545,0.0
49435.0,STARLINK-3117,PAYLOAD,2022-01-13 22:00:00,15.62881042,0.0001554,53.2173,189.762,40.4014,69.2193,-0.0035051,-0.00311009,0.0,0 STARLINK-3117,1 49435U 21104AD  22013.91667824 -.00311009  00000-0 -35051-2 0  9996,2 49435  53.2173 189.7620 0001554  40.4014  69.2193 15.62881042  3672,6757.477,92.138,380.392,378.292,0.0
49435.0,STARLINK-3117,PAYLOAD,2022-01-14 14:00:01,15.62451253,0.0001717,53.2177,186.5105,38.5668,223.5974,-0.0036511,-0.00318267,0.0,0 STARLINK-3117,1 49435U 21104AD  22014.58334491 -.00318267  00000-0 -36511-2 0  9996,2 49435  53.2177 186.5105 0001717  38.5668 223.5974 15.62451253  3683,6758.715999999999,92.163,381.741,379.42,0.0
49435.0,STARLINK-3117,PAYLOAD,2022-01-14 22:00:00,15.62232591,0.0001617,53.2175,184.8878,37.5439,300.5008,-0.0036455,-0.00315191,0.0,0 STARLINK-3117,1 49435U 21104AD  22014.91667824 -.00315191  00000-0 -36455-2 0  9992,2 49435  53.2175 184.8878 0001617  37.5439 300.5008 15.62232591 11093,6759.347,92.176,382.305,380.119,0.0
49435.0,STARLINK-3117,PAYLOAD,2022-01-15 14:00:01,15.6180034,0.0002079,53.2175,181.6396,25.8381,103.2515,-0.0037501,-0.00318702,0.0,0 STARLINK-3117,1 49435U 21104AD  22015.58335648 -.00318702  00000-0 -37501-2 0  9996,2 49435  53.2175 181.6396 0002079  25.8381 103.2515 15.61800340  3704,6760.594,92.201,383.864,381.05300000000005,0.0
49435.0,STARLINK-3117,PAYLOAD,2022-01-15 22:00:01,15.61578931,0.0001736,53.2172,180.0184,37.1568,167.032,-0.0036797,-0.00310347,0.0,0 STARLINK-3117,1 49435U 21104AD  22015.91668981 -.00310347  00000-0 -36797-2 0  9995,2 49435  53.2172 180.0184 0001736  37.1568 167.0320 15.61578931 11250,6761.233,92.214,384.271,381.924,0.0
49435.0,STARLINK-3117,PAYLOAD,2022-01-16 14:00:01,15.6115052,0.0001848,53.2175,176.7735,30.3624,323.175,-0.0038732,-0.00320861,0.0,0 STARLINK-3117,1 49435U 21104AD  22016.58334491 -.00320861  00000-0 -38732-2 0  9998,2 49435  53.2175 176.7735 0001848  30.3624 323.1750 15.61150520  3689,6762.47,92.24,385.584,383.085,0.0
49435.0,STARLINK-3117,PAYLOAD,2022-01-16 22:00:00,15.60930471,0.0001735,53.2172,175.1538,31.2423,36.6117,-0.0038294,-0.0031478,0.0,0 STARLINK-3117,1 49435U 21104AD  22016.91667824 -.00314780  00000-0 -38294-2 0  9990,2 49435  53.2172 175.1538 0001735  31.2423  36.6117 15.60930471  3696,6763.105,92.253,386.143,383.797,0.0
49435.0,STARLINK-3117,PAYLOAD,2022-01-17 00:00:00,15.60878925,0.000181,53.2171,174.7481,34.3736,142.0183,-0.00391,-0.00320536,0.0,0 STARLINK-3117,1 49435U 21104AD  22017.00001157 -.00320536  00000-0 -39100-2 0  9995,2 49435  53.2171 174.7481 0001810  34.3736 142.0183 15.60878925 11422,6763.254,92.256,386.343,383.895,0.0
49435.0,STARLINK-3117,PAYLOAD,2022-01-17 14:00:01,15.60496974,0.000201,53.2176,171.9121,31.0255,184.6795,-0.0039109,-0.00316111,0.0,0 STARLINK-3117,1 49435U 21104AD  22017.58334491 -.00316111  00000-0 -39109-2 0  9991,2 49435  53.2176 171.9121 0002010  31.0255 184.6795 15.60496974  3691,6764.358,92.278,387.582,384.86300000000006,0.0
49435.0,STARLINK-3117,PAYLOAD,2022-01-17 22:00:00,15.60279166,0.0001595,53.2172,170.2936,33.6033,255.6351,-0.0039145,-0.00313828,0.0,0 STARLINK-3117,1 49435U 21104AD  22017.91667824 -.00313828  00000-0 -39145-2 0  9999,2 49435  53.2172 170.2936 0001595  33.6033 255.6351 15.60279166  3680,6764.986999999999,92.291,387.931,385.773,0.0
49435.0,STARLINK-3117,PAYLOAD,2022-01-18 06:00:00,15.60062172,0.0001757,53.2173,168.6728,30.0084,332.5049,-0.0039631,-0.00315048,0.0,0 STARLINK-3117,1 49435U 21104AD  22018.25001157 -.00315048  00000-0 -39631-2 0  9994,2 49435  53.2173 168.6728 0001757  30.0084 332.5049 15.60062172 11616,6765.614000000001,92.304,388.668,386.291,0.0
49435.0,STARLINK-3117,PAYLOAD,2022-01-18 14:00:01,15.5984733,0.0002078,53.2174,167.0557,25.1117,50.4125,-0.0040451,-0.00318796,0.0,0 STARLINK-3117,1 49435U 21104AD  22018.58334491 -.00318796  00000-0 -40451-2 0  9995,2 49435  53.2174 167.0557 0002078  25.1117  50.4125 15.59847330  3683,6766.236,92.317,389.507,386.695,0.0
49435.0,STARLINK-3117,PAYLOAD,2022-01-18 22:00:00,15.5962969,0.0001633,53.217,165.4386,38.5723,109.7032,-0.0040582,-0.00317212,0.0,0 STARLINK-3117,1 49435U 21104AD  22018.91667824 -.00317212  00000-0 -40582-2 0  9998,2 49435  53.2170 165.4386 0001633  38.5723 109.7032 15.59629690  3680,6766.865,92.33,389.835,387.625,0.0
49435.0,STARLINK-3117,PAYLOAD,2022-01-19 06:00:02,15.59382078,0.0001837,53.217,163.8205,31.2843,189.5612,-0.0034529,-0.0026903,0.0,0 STARLINK-3117,1 49435U 21104AD  22019.25002315 -.00269030  00000-0 -34529-2 0  9992,2 49435  53.2170 163.8205 0001837  31.2843 189.5612 15.59382078 11776,6767.581,92.344,390.69,388.203,0.0
49435.0,STARLINK-3117,PAYLOAD,2022-01-19 14:00:01,15.5907346,0.0001606,53.217,162.2052,52.012,241.0486,-0.0017823,-0.00139687,0.0,0 STARLINK-3117,1 49435U 21104AD  22019.58334491 -.00139687  00000-0 -17823-2 0  9993,2 49435  53.2170 162.2052 0001606  52.0120 241.0486 15.59073460  3655,6768.474,92.363,391.426,389.252,0.0
49435.0,STARLINK-3117,PAYLOAD,2022-01-19 22:00:00,15.58979377,0.000146,53.2172,160.588,40.6533,324.3124,-0.0041652,-0.00317575,0.0,0 STARLINK-3117,1 49435U 21104AD  22019.91667824 -.00317575  00000-0 -41652-2 0  9990,2 49435  53.2172 160.5880 0001460  40.6533 324.3124 15.58979377 11874,6768.746999999999,92.368,391.6,389.62300000000016,0.0
49435.0,STARLINK-3117,PAYLOAD,2022-01-20 14:00:01,15.58543485,0.0002132,53.2174,157.3565,26.6379,121.486,-0.0042089,-0.00315752,0.0,0 STARLINK-3117,1 49435U 21104AD  22020.58334491 -.00315752  00000-0 -42089-2 0  9996,2 49435  53.2174 157.3565 0002132  26.6379 121.4860 15.58543485  3690,6770.009,92.394,393.317,390.43,0.0
49435.0,STARLINK-3117,PAYLOAD,2022-01-20 22:00:00,15.58329224,0.0001629,53.217,155.74200000000005,42.7286,176.5812,-0.0043101999999999,-0.00320512,0.0,0 STARLINK-3117,1 49435U 21104AD  22020.91667824 -.00320512  00000-0 -43102-2 0  9999,2 49435  53.2170 155.7420 0001629  42.7286 176.5812 15.58329224  3673,6770.629,92.407,393.597,391.391,0.0
49435.0,STARLINK-3117,PAYLOAD,2022-01-21 08:00:01,15.5805704,0.0001951,53.2174,153.7227,28.5533,9.3746,-0.004317,-0.00317858,0.0,0 STARLINK-3117,1 49435U 21104AD  22021.33334491 -.00317858  00000-0 -43170-2 0  9991,2 49435  53.2174 153.7227 0001951  28.5533   9.3746 15.58057040 12094,6771.418000000002,92.423,394.604,391.962,0.0
49435.0,STARLINK-3117,PAYLOAD,2022-01-21 14:00:01,15.57894381,0.0001954,53.2173,152.514,27.9517,332.9506,-0.0043577,-0.0031885,0.0,0 STARLINK-3117,1 49435U 21104AD  22021.58334491 -.00318850  00000-0 -43577-2 0  9992,2 49435  53.2173 152.5140 0001954  27.9517 332.9506 15.57894381  3693,6771.889,92.432,395.077,392.431,0.0
49435.0,STARLINK-3117,PAYLOAD,2022-01-21 22:00:00,15.5767724,0.0001533,53.2171,150.9011,39.1661,32.1408,-0.0043817,-0.00318004,0.0,0 STARLINK-3117,1 49435U 21104AD  22021.91667824 -.00318004  00000-0 -43817-2 0  9996,2 49435  53.2171 150.9011 0001533  39.1661  32.1408 15.57677240  3680,6772.518,92.445,395.422,393.345,0.0
49435.0,STARLINK-3117,PAYLOAD,2022-01-22 02:00:01,15.57571994,0.0001647,53.2174,150.0938,35.6023,250.8085,-0.0044842,-0.00323917,0.0,0 STARLINK-3117,1 49435U 21104AD  22022.08334491 -.00323917  00000-0 -44842-2 0  9994,2 49435  53.2174 150.0938 0001647  35.6023 250.8085 15.57571994  3679,6772.823,92.452,395.804,393.573,0.0
49435.0,STARLINK-3117,PAYLOAD,2022-01-22 22:00:00,15.57027531,0.0001551,53.2173,146.0645,44.2743,236.6826,-0.0045359,-0.00321132,0.0,0 STARLINK-3117,1 49435U 21104AD  22022.91667824 -.00321132  00000-0 -45359-2 0  9996,2 49435  53.2173 146.0645 0001551  44.2743 236.6826 15.57027531 12349,6774.401999999999,92.484,397.318,395.217,0.0
49435.0,STARLINK-3117,PAYLOAD,2022-01-23 14:00:01,15.56592759,0.0002133,53.2175,142.8433,23.5498,35.8701,-0.0045879,-0.00319669,0.0,0 STARLINK-3117,1 49435U 21104AD  22023.58334491 -.00319669  00000-0 -45879-2 0  9990,2 49435  53.2175 142.8433 0002133  23.5498  35.8701 15.56592759  3680,6775.6640000000025,92.51,398.974,396.083,0.0
49435.0,STARLINK-3117,PAYLOAD,2022-01-23 22:00:00,15.56375122,0.0001591,53.2171,141.2329,40.8303,87.4305,-0.0046063,-0.00318377,0.0,0 STARLINK-3117,1 49435U 21104AD  22023.91667824 -.00318377  00000-0 -46063-2 0  9997,2 49435  53.2171 141.2329 0001591  40.8303  87.4305 15.56375122  3683,6776.295,92.523,399.23800000000006,397.082,0.0
49435.0,STARLINK-3117,PAYLOAD,2022-01-24 06:00:02,15.56158433,0.0001751999999999,53.2173,139.6217,38.3787,158.5273,-0.0046595,-0.00319432,0.0,0 STARLINK-3117,1 49435U 21104AD  22024.25002315 -.00319432  00000-0 -46595-2 0  9996,2 49435  53.2173 139.6217 0001752  38.3787 158.5273 15.56158433 12553,6776.924,92.536,399.977,397.602,0.0
